STARLINK-36884          
1 68026U 26040M   26068.91668981 -.01162450  46436-3 -16232-2 0  9997
2 68026  97.2773  17.1210 0000848  97.8588 276.3593 16.05963331  2460
STARLINK-36853          
1 68097U 26042AE  26068.75002315 -.01281131  54446-3 -19313-2 0  9993
2 68097  53.1603 194.9457 0000921  56.7454  22.2498 16.04002744  2065
